STARLINK-36291          
1 67195U 25304D   26008.29212023  .00096884  00000+0  15558-2 0  9999
2 67195  70.0000 332.9097 0003012 267.5423  92.5419 15.52566474  4688
STARLINK-36239          
1 67196U 25304E   26008.25003472 -.02563719  00000+0 -61873-1 0  9992
2 67196  70.0005 333.0517 0003161 281.9298 179.1416 15.44761939  4726
STARLINK-36283          
1 67197U 25304F   26008.29108466  .00112061  00000+0  17941-2 0  9990
2 67197  70.0001 332.9052 0002943 261.6159  98.4695 15.52590346  4681
STARLINK-36267          
1 67198U 25304G   26008.29143408  .00047152  00000+0  76384-3 0  9991
2 67198  70.0002 332.9071 0002945 262.5337  97.5515 15.52548497  4652
STARLINK-36268          
1 67199U 25304H   26008.29074628  .00060452  00000+0  97682-3 0  9991
2 67199  70.0001 332.9043 0003118 263.5790  96.5041 15.52549942  4680
STARLINK-36270          
1 67200U 25304J   26008.25003472  .00078686  00000+0  17849-2 0  9993
2 67200  69.9998 333.0772 0003482 277.4409 161.9100 15.42662028  4729
STARLINK-36262          
1 67201U 25304K   26008.25003472 -.02020206  00000+0 -46175-1 0  9996
2 67201  70.0004 333.0301 0003393 280.8349 199.0532 15.46060096  4723
STARLINK-36263          
1 67202U 25304L   26008.28982956 -.00327809  00000+0 -56834-2 0  9994
2 67202  70.0001 332.9007 0003278 256.3937 103.6885 15.51848432  4686
STARLINK-36224          
1 67203U 25304M   26008.28937591  .00101668  00000+0  16316-2 0  9992
2 67203  70.0000 332.8987 0003149 268.5840  91.4986 15.52564633  4682
STARLINK-36185          
1 67204U 25304N   26008.28903290  .00048231  00000+0  78117-3 0  9996
2 67204  70.0002 332.8974 0003157 263.0916  96.9912 15.52547179  4689
STARLINK-36197          
1 67205U 25304P   26008.28868810  .00067920  00000+0  10948-2 0  9998
2 67205  70.0000 332.8966 0003125 266.9609  93.1221 15.52583904  4650
STARLINK-36056          
1 67206U 25304Q   26008.28834659  .00079025  00000+0  12726-2 0  9998
2 67206  70.0001 332.8948 0003377 266.8083  93.2717 15.52559661  4650
