CCSDS_OMM_VERS = 2.0
CREATION_DATE  = 
ORIGINATOR     = 

OBJECT_NAME    = STARLINK-36291
OBJECT_ID      = 2025-304D
CENTER_NAME    = EARTH
REF_FRAME      = TEME
TIME_SYSTEM    = UTC
MEAN_ELEMENT_THEORY = SGP/SGP4

EPOCH          = 2026-01-08T07:00:39.187872
MEAN_MOTION    = 15.52566474
ECCENTRICITY   = .00030127
INCLINATION    = 70.0000
RA_OF_ASC_NODE = 332.9097
ARG_OF_PERICENTER = 267.5423
MEAN_ANOMALY   = 92.5419

EPHEMERIS_TYPE = 0
CLASSIFICATION_TYPE = U
NORAD_CAT_ID   = 67195
ELEMENT_SET_NO = 999
REV_AT_EPOCH   = 468
BSTAR          = .15558161E-2
MEAN_MOTION_DOT = .96884E-3
MEAN_MOTION_DDOT = 0

CCSDS_OMM_VERS = 2.0
CREATION_DATE  = 
ORIGINATOR     = 

OBJECT_NAME    = STARLINK-36239
OBJECT_ID      = 2025-304E
CENTER_NAME    = EARTH
REF_FRAME      = TEME
TIME_SYSTEM    = UTC
MEAN_ELEMENT_THEORY = SGP/SGP4

EPOCH          = 2026-01-08T06:00:02.999808
MEAN_MOTION    = 15.44761939
ECCENTRICITY   = .00031617
INCLINATION    = 70.0005
RA_OF_ASC_NODE = 333.0517
ARG_OF_PERICENTER = 281.9298
MEAN_ANOMALY   = 179.1416

EPHEMERIS_TYPE = 0
CLASSIFICATION_TYPE = U
NORAD_CAT_ID   = 67196
ELEMENT_SET_NO = 999
REV_AT_EPOCH   = 472
BSTAR          = -.61873455E-1
MEAN_MOTION_DOT = -.2563719E-1
MEAN_MOTION_DDOT = 0

CCSDS_OMM_VERS = 2.0
CREATION_DATE  = 
ORIGINATOR     = 

OBJECT_NAME    = STARLINK-36283
OBJECT_ID      = 2025-304F
CENTER_NAME    = EARTH
REF_FRAME      = TEME
TIME_SYSTEM    = UTC
MEAN_ELEMENT_THEORY = SGP/SGP4

EPOCH          = 2026-01-08T06:59:09.714624
MEAN_MOTION    = 15.52590346
ECCENTRICITY   = .00029434
INCLINATION    = 70.0001
RA_OF_ASC_NODE = 332.9052
ARG_OF_PERICENTER = 261.6159
MEAN_ANOMALY   = 98.4695

EPHEMERIS_TYPE = 0
CLASSIFICATION_TYPE = U
NORAD_CAT_ID   = 67197
ELEMENT_SET_NO = 999
REV_AT_EPOCH   = 468
BSTAR          = .17941325E-2
MEAN_MOTION_DOT = .112061E-2
MEAN_MOTION_DDOT = 0

CCSDS_OMM_VERS = 2.0
CREATION_DATE  = 
ORIGINATOR     = 

OBJECT_NAME    = STARLINK-36267
OBJECT_ID      = 2025-304G
CENTER_NAME    = EARTH
REF_FRAME      = TEME
TIME_SYSTEM    = UTC
MEAN_ELEMENT_THEORY = SGP/SGP4

EPOCH          = 2026-01-08T06:59:39.904512
MEAN_MOTION    = 15.52548497
ECCENTRICITY   = .00029455
INCLINATION    = 70.0002
RA_OF_ASC_NODE = 332.9071
ARG_OF_PERICENTER = 262.5337
MEAN_ANOMALY   = 97.5515

EPHEMERIS_TYPE = 0
CLASSIFICATION_TYPE = U
NORAD_CAT_ID   = 67198
ELEMENT_SET_NO = 999
REV_AT_EPOCH   = 465
BSTAR          = .76383578E-3
MEAN_MOTION_DOT = .47152E-3
MEAN_MOTION_DDOT = 0

CCSDS_OMM_VERS = 2.0
CREATION_DATE  = 
ORIGINATOR     = 

OBJECT_NAME    = STARLINK-36268
OBJECT_ID      = 2025-304H
CENTER_NAME    = EARTH
REF_FRAME      = TEME
TIME_SYSTEM    = UTC
MEAN_ELEMENT_THEORY = SGP/SGP4

EPOCH          = 2026-01-08T06:58:40.478592
MEAN_MOTION    = 15.52549942
ECCENTRICITY   = .00031187
INCLINATION    = 70.0001
RA_OF_ASC_NODE = 332.9043
ARG_OF_PERICENTER = 263.5790
MEAN_ANOMALY   = 96.5041

EPHEMERIS_TYPE = 0
CLASSIFICATION_TYPE = U
NORAD_CAT_ID   = 67199
ELEMENT_SET_NO = 999
REV_AT_EPOCH   = 468
BSTAR          = .97682395E-3
MEAN_MOTION_DOT = .60452E-3
MEAN_MOTION_DDOT = 0

CCSDS_OMM_VERS = 2.0
CREATION_DATE  = 
ORIGINATOR     = 

OBJECT_NAME    = STARLINK-36270
OBJECT_ID      = 2025-304J
CENTER_NAME    = EARTH
REF_FRAME      = TEME
TIME_SYSTEM    = UTC
MEAN_ELEMENT_THEORY = SGP/SGP4

EPOCH          = 2026-01-08T06:00:02.999808
MEAN_MOTION    = 15.42662028
ECCENTRICITY   = .00034824
INCLINATION    = 69.9998
RA_OF_ASC_NODE = 333.0772
ARG_OF_PERICENTER = 277.4409
MEAN_ANOMALY   = 161.9100

EPHEMERIS_TYPE = 0
CLASSIFICATION_TYPE = U
NORAD_CAT_ID   = 67200
ELEMENT_SET_NO = 999
REV_AT_EPOCH   = 472
BSTAR          = .17848921E-2
MEAN_MOTION_DOT = .78686E-3
MEAN_MOTION_DDOT = 0

CCSDS_OMM_VERS = 2.0
CREATION_DATE  = 
ORIGINATOR     = 

OBJECT_NAME    = STARLINK-36262
OBJECT_ID      = 2025-304K
CENTER_NAME    = EARTH
REF_FRAME      = TEME
TIME_SYSTEM    = UTC
MEAN_ELEMENT_THEORY = SGP/SGP4

EPOCH          = 2026-01-08T06:00:02.999808
MEAN_MOTION    = 15.46060096
ECCENTRICITY   = .00033934
INCLINATION    = 70.0004
RA_OF_ASC_NODE = 333.0301
ARG_OF_PERICENTER = 280.8349
MEAN_ANOMALY   = 199.0532

EPHEMERIS_TYPE = 0
CLASSIFICATION_TYPE = U
NORAD_CAT_ID   = 67201
ELEMENT_SET_NO = 999
REV_AT_EPOCH   = 472
BSTAR          = -.46175128E-1
MEAN_MOTION_DOT = -.2020206E-1
MEAN_MOTION_DDOT = 0

CCSDS_OMM_VERS = 2.0
CREATION_DATE  = 
ORIGINATOR     = 

OBJECT_NAME    = STARLINK-36263
OBJECT_ID      = 2025-304L
CENTER_NAME    = EARTH
REF_FRAME      = TEME
TIME_SYSTEM    = UTC
MEAN_ELEMENT_THEORY = SGP/SGP4

EPOCH          = 2026-01-08T06:57:21.273984
MEAN_MOTION    = 15.51848432
ECCENTRICITY   = .00032788
INCLINATION    = 70.0001
RA_OF_ASC_NODE = 332.9007
ARG_OF_PERICENTER = 256.3937
MEAN_ANOMALY   = 103.6885

EPHEMERIS_TYPE = 0
CLASSIFICATION_TYPE = U
NORAD_CAT_ID   = 67202
ELEMENT_SET_NO = 999
REV_AT_EPOCH   = 468
BSTAR          = -.56833984E-2
MEAN_MOTION_DOT = -.327809E-2
MEAN_MOTION_DDOT = 0

CCSDS_OMM_VERS = 2.0
CREATION_DATE  = 
ORIGINATOR     = 

OBJECT_NAME    = STARLINK-36224
OBJECT_ID      = 2025-304M
CENTER_NAME    = EARTH
REF_FRAME      = TEME
TIME_SYSTEM    = UTC
MEAN_ELEMENT_THEORY = SGP/SGP4

EPOCH          = 2026-01-08T06:56:42.078624
MEAN_MOTION    = 15.52564633
ECCENTRICITY   = .00031491
INCLINATION    = 70.0000
RA_OF_ASC_NODE = 332.8987
ARG_OF_PERICENTER = 268.5840
MEAN_ANOMALY   = 91.4986

EPHEMERIS_TYPE = 0
CLASSIFICATION_TYPE = U
NORAD_CAT_ID   = 67203
ELEMENT_SET_NO = 999
REV_AT_EPOCH   = 468
BSTAR          = .16316094E-2
MEAN_MOTION_DOT = .101668E-2
MEAN_MOTION_DDOT = 0

CCSDS_OMM_VERS = 2.0
CREATION_DATE  = 
ORIGINATOR     = 

OBJECT_NAME    = STARLINK-36185
OBJECT_ID      = 2025-304N
CENTER_NAME    = EARTH
REF_FRAME      = TEME
TIME_SYSTEM    = UTC
MEAN_ELEMENT_THEORY = SGP/SGP4

EPOCH          = 2026-01-08T06:56:12.442560
MEAN_MOTION    = 15.52547179
ECCENTRICITY   = .00031571
INCLINATION    = 70.0002
RA_OF_ASC_NODE = 332.8974
ARG_OF_PERICENTER = 263.0916
MEAN_ANOMALY   = 96.9912

EPHEMERIS_TYPE = 0
CLASSIFICATION_TYPE = U
NORAD_CAT_ID   = 67204
ELEMENT_SET_NO = 999
REV_AT_EPOCH   = 468
BSTAR          = .78117202E-3
MEAN_MOTION_DOT = .48231E-3
MEAN_MOTION_DDOT = 0

CCSDS_OMM_VERS = 2.0
CREATION_DATE  = 
ORIGINATOR     = 

OBJECT_NAME    = STARLINK-36197
OBJECT_ID      = 2025-304P
CENTER_NAME    = EARTH
REF_FRAME      = TEME
TIME_SYSTEM    = UTC
MEAN_ELEMENT_THEORY = SGP/SGP4

EPOCH          = 2026-01-08T06:55:42.651840
MEAN_MOTION    = 15.52583904
ECCENTRICITY   = .00031255
INCLINATION    = 70.0000
RA_OF_ASC_NODE = 332.8966
ARG_OF_PERICENTER = 266.9609
MEAN_ANOMALY   = 93.1221

EPHEMERIS_TYPE = 0
CLASSIFICATION_TYPE = U
NORAD_CAT_ID   = 67205
ELEMENT_SET_NO = 999
REV_AT_EPOCH   = 465
BSTAR          = .10947994E-2
MEAN_MOTION_DOT = .6792E-3
MEAN_MOTION_DDOT = 0

CCSDS_OMM_VERS = 2.0
CREATION_DATE  = 
ORIGINATOR     = 

OBJECT_NAME    = STARLINK-36056
OBJECT_ID      = 2025-304Q
CENTER_NAME    = EARTH
REF_FRAME      = TEME
TIME_SYSTEM    = UTC
MEAN_ELEMENT_THEORY = SGP/SGP4

EPOCH          = 2026-01-08T06:55:13.145376
MEAN_MOTION    = 15.52559661
ECCENTRICITY   = .00033771
INCLINATION    = 70.0001
RA_OF_ASC_NODE = 332.8948
ARG_OF_PERICENTER = 266.8083
MEAN_ANOMALY   = 93.2717

EPHEMERIS_TYPE = 0
CLASSIFICATION_TYPE = U
NORAD_CAT_ID   = 67206
ELEMENT_SET_NO = 999
REV_AT_EPOCH   = 465
BSTAR          = .12726447E-2
MEAN_MOTION_DOT = .79025E-3
MEAN_MOTION_DDOT = 0

